PHISAT 2                
1 60470U 24149C   26068.78834181  .00008925  00000+0  31421-3 0  9996
2 60470  97.3806 148.6498 0001175 168.6230 191.5037 15.29548631 86792
STARLINK-32400          
1 61669U 24193J   26068.46592596 -.00004872  00000+0 -15270-3 0  9995
2 61669  53.1604  89.8226 0001045  79.4954 280.6164 15.30157214 76528
